IRIDIUM 166             
1 43570U 18061B   24093.53841163  .00000455  00000+0  15542-3 0  9997
2 43570  86.4008  33.4114 0002514  82.8652 277.2830 14.34216668297925
IRIDIUM 158             
1 43571U 18061C   24093.57646434  .00000423  00000+0  14387-3 0  9997
2 43571  86.4005  33.4046 0002239  79.9281 280.2168 14.34218617297896
IRIDIUM 165             
1 43572U 18061D   24093.53206499  .00000131  00000+0  39742-4 0  9996
2 43572  86.4010  33.4542 0002247  79.3304 280.8145 14.34218625297916
IRIDIUM 155             
1 43573U 18061E   24093.56379140  .00000455  00000+0  15555-3 0  9998
2 43573  86.4004  33.3498 0002437  85.1554 274.9920 14.34213837297883
IRIDIUM 154             
1 43574U 18061F   24093.54472685  .00000446  00000+0  15208-3 0  9990
2 43574  86.4007  33.4518 0001983  87.3235 272.8188 14.34225212297935
IRIDIUM 163             
1 43575U 18061G   24093.52570461  .00000440  00000+0  15000-3 0  9994
2 43575  86.4005  33.4003 0002238  87.5623 272.5829 14.34222335297909
IRIDIUM 156             
1 43576U 18061H   24093.57012083  .00000478  00000+0  16347-3 0  9997
2 43576  86.4004  33.3880 0002319  82.1189 278.0270 14.34218991297903
IRIDIUM 164             
1 43577U 18061J   24093.55109264  .00000469  00000+0  16052-3 0  9997
2 43577  86.4006  33.4238 0002060  81.1737 278.9692 14.34217397297945
